INSERT INTO public.users(id, created_at, updated_at, name, email, password, address, address_map_latitude, address_map_longitude, main_phone_number, secondary_phone_number, identification, ruc, api_token)	VALUES (9,'2020-01-11 13:47:32','2020-01-11 13:47:32','CASTILLO VITERI GABRIELA ELIZABETH','gabriela.castillo@turismo.gob.ec','eyJpdiI6Ik9YUVBZMGhhZWVOTzFVQ2pvMUUzVGc9PSIsInZhbHVlIjoiYXg1MFFEbEh4bzN4dG15bkpaaHBYb2VtcnVFTUMxd2hGUys1MCs1cHpTdz0iLCJtYWMiOiI3MzhmN2UxNTVmZDBlYjViNjQzNTRlY2M1MGZjY2YxOGQ5MjIxMzg3OThlNzJmMGUxOTZkYzY5M2YxNTgyN2UzIn0=','',null,null,'0000000000', '0000000000','1002975454','1002975454001','s4Vmlk0QTo8xmXVHXpXIMrxMKIK3oezIK7U18KtjScNuqQ01Un7GqUKtjuG6ilkQ');
INSERT INTO public.users(id, created_at, updated_at, name, email, password, address, address_map_latitude, address_map_longitude, main_phone_number, secondary_phone_number, identification, ruc, api_token)	VALUES (10,'2020-01-11 13:47:32','2020-01-11 13:47:32','SAAVEDRA BUCHELI MONICA ELIZABETH','elizabeth.saavedra@turismo.gob.ec','eyJpdiI6ImxDYkJoSmJaYXRKQlF5K2hkcnlCTHc9PSIsInZhbHVlIjoiWEVROHpBeUF3MHNZK0k2VWpyZFBJNlpSamVcL0xvdUZ4RnloOVYxN3JRSlE9IiwibWFjIjoiOTg5NjM3ZGZlNmIxZDk1OTgxOTcyNzk2YTRmM2I3ODI1NTZlZWU1ZjdkYjdmNDVlM2UxN2RkNzhjZTdjODQ4NCJ9','',null,null,'0000000000', '0000000000','1002543963','1002543963001','51pSPXqpqyPOqURf10T4GgbiPTdGeK6y2mfVSi6zL2cyarNASU7Nn9uAlXMELpMb');
INSERT INTO public.users(id, created_at, updated_at, name, email, password, address, address_map_latitude, address_map_longitude, main_phone_number, secondary_phone_number, identification, ruc, api_token)	VALUES (11,'2020-01-11 13:47:32','2020-01-11 13:47:32','GREFA LÓPEZ BELLA MIRIAM','bella.grefa@turismo.gob.ec','eyJpdiI6IlduUXhRRm83VXpaNnlhWHBxWnNYUXc9PSIsInZhbHVlIjoiVndLRCt6UVwvcjBaOHNrZndhNXlYcVwvS2hcLzhOaUx0YzRqeVo4SEtzVHdVND0iLCJtYWMiOiIzNjM1ZmZjZmMxNDQ1MjhhODEwYjM0OTIzNzkyZTExMTdhYTkwMmY2NmEwY2I3NjNkZmYyZGZlYTYyOWRhZjk0In0=','',null,null,'0000000000', '0000000000','2100272901','2100272901001','lxOEcnSCvG1AVsYOCucdZBUpWozE2Zru3lz9msxFHxvebgODzJ7dWYZYZ6FEd7jR');
INSERT INTO public.users(id, created_at, updated_at, name, email, password, address, address_map_latitude, address_map_longitude, main_phone_number, secondary_phone_number, identification, ruc, api_token)	VALUES (12,'2020-01-11 13:47:32','2020-01-11 13:47:32','KLINGER CEVALLOS FERNANDO LUCIANO','fernando.klinger@turismo.gob.ec','eyJpdiI6Im9rY1o0bjlnN2VXWVwvVU91ZW9YTXZRPT0iLCJ2YWx1ZSI6IjBac0pEV003QU9pRHBTR1VRTWlYdCtOTGgwT0FPeVM4RjN3R0thRHZTQTg9IiwibWFjIjoiOGQ3YzQ3Yzc3NGEzMDBlY2Q5MDJmYTMxYTU4MDVhNjQ0MmQzM2NkMjMyYzg2NzhhMGFmNDk1ODA2OWI5MmUwNSJ9','',null,null,'0000000000', '0000000000','0801468976','0801468976001','svA5nmvRj7sRLlWakcUCbV7Yh6gNybdpQDVMg8EpCalGF0ryhmQ0fMMzXmZXru5I');
INSERT INTO public.users(id, created_at, updated_at, name, email, password, address, address_map_latitude, address_map_longitude, main_phone_number, secondary_phone_number, identification, ruc, api_token)	VALUES (13,'2020-01-11 14:05:17','2020-01-11 14:05:17','PEREZ LUNA LUIS ENRIQUE','luis.perez@turismo.gob.ec','eyJpdiI6Ijd3YlUweVwvMFwvb0g1anJhcEYzbVwvSHc9PSIsInZhbHVlIjoidlNicERNYWQwZFNiaUhMaFlPeFpTeVwvVEVYaTBkZUtTbjRZSERUYm9wM0E9IiwibWFjIjoiZjRmNjkyNjYwMTJjY2RhYjA1NWQ0ZmFlMjE5MjBjZTc5NjM4N2ZiNTc4ZDhlMmJjZTkzZTM5MGI3YTI0NmVkMiJ9','',null,null,'0000000000', '0000000000','1500691322','1500691322001','LauqLNN4G1ab5kWNYOUJ1KmFTfSpneyVP6QVj5maOLCAUeLMYXuZaT9Fapy24zSM');
INSERT INTO public.users(id, created_at, updated_at, name, email, password, address, address_map_latitude, address_map_longitude, main_phone_number, secondary_phone_number, identification, ruc, api_token)	VALUES (15,'2020-01-11 14:05:17','2020-01-11 16:12:17','CADENA PEÑAPABLO ANDRES','pablo.cadena@turismo.gob.ec','eyJpdiI6IklFU0hucWNsS2V6b0U2TlhLTUNqaEE9PSIsInZhbHVlIjoiMlAzd1JkdFZNdXhDKzR4bThWb0pIcjRwTFdxaGRXdWt1YlZ5UmJwQjNBdz0iLCJtYWMiOiIzODE0ZTJmYmFlMWIxMmY1NzZiY2RkNGU0ZDk4ODkzMzNjNzRmMmZmNzM1NjlmNWMxODFiMWU2MmZjOTY2YzkxIn0=','',null,null,'0000000000', '0000000000','1713423422','1713423422001','eyJ0eXAiOiJKV1QiLCJhbGciOiJIUzI1NiJ9.eyJzdWJqZWN0IjoxNSwiY3JlYXRpb25fdGltZSI6MTU3ODc3NzEzNywiZXhwaXJhdGlvbl90aW1lIjoxNTc4NzgwNzM3fQ.B0MWD5L30dAj3NqjDVuPv2PL6Kh07beZl8C6cb-HJ4w');
INSERT INTO public.users(id, created_at, updated_at, name, email, password, address, address_map_latitude, address_map_longitude, main_phone_number, secondary_phone_number, identification, ruc, api_token)	VALUES (3,'2020-01-11 13:47:31','2020-01-11 13:47:31','GARCIA MERA DIEGO XAVIER','diego.garcia@turismo.gob.ec','eyJpdiI6IkYrRE1xbVR6SXkzbUdPSzNaSU1RMlE9PSIsInZhbHVlIjoib2Q4RFZBV01ZY0Z0NmVTY1wvUUxXYUt1eVA4bDB3WU9rRzh1eiswOVFRK289IiwibWFjIjoiNDhkNDliMWRkNTQyMDZkZWVjNTNlNWE2MjkxYzZkMDE0ODQ2NzJlYmUwMjFiZjVkZWQ0YmZhYzRkZmM1YjViNyJ9','',null,null,'0000000000', '0000000000','0401167788','0401167788001','Rt2J2vBM2nzp8pz94GEaRedqGtO6GR8JpNXbt17ptMCXBqsQ8ett2wK6MDKPB0mt');
INSERT INTO public.users(id, created_at, updated_at, name, email, password, address, address_map_latitude, address_map_longitude, main_phone_number, secondary_phone_number, identification, ruc, api_token)	VALUES (4,'2020-01-11 13:47:31','2020-01-11 13:47:31','QUESADA MORENO ADRIAN CAMILO','adrian.quesada@turismo.gob.ec','eyJpdiI6Im9XZkI2TTA3OU5ScVpQTWRlbGtMYnc9PSIsInZhbHVlIjoiZ0hYamthamcrbUlRTWlwQUxtdHZwMk1ybzJTWGNoK2xldU5MVUtcL0d6MjQ9IiwibWFjIjoiMjM5M2NlNGI5YTkzNmVmOTJkMzZiYjYxOTQzYzYyYTJmNDkyNDJjNTc5ODQ0N2Y0ZmQ2OTdkOGQ5MmFkMGJiYSJ9','',null,null,'0000000000', '0000000000','0401528005','0401528005001','rIMwdBS5AFfFFOmiwHuPNL4JrRBeaapBsYHRt66Y1e79xV39uCLajNgrS8mQOksX');
INSERT INTO public.users(id, created_at, updated_at, name, email, password, address, address_map_latitude, address_map_longitude, main_phone_number, secondary_phone_number, identification, ruc, api_token)	VALUES (5,'2020-01-11 13:47:31','2020-01-11 13:47:31','MARTINEZ GODOY YULI CECILIA','yuli.martinez@turismo.gob.ec','eyJpdiI6ImZ4cUpJOUFSVE43WlFDNUhraGhvRUE9PSIsInZhbHVlIjoialJNY0hUKzdFSHByMGg4S3pJTkhNN1pYMnFpM3hcL1A5b21GbHMyajdZUHc9IiwibWFjIjoiMDAzZjJhZDA5YjU5MjNhMjViZDQwYTgxMGYxYmE2NjYyM2E3NTMwZDU5MDBjYzgwN2YwOTdiZTAwMDUxMzJiZiJ9','',null,null,'0000000000', '0000000000','0801148024','0801148024001','aJL6S94pPPGEUmBcGpaFvfBhTNUjPq1zaGPmmHpyzF068VfWuk7t9SK1jHqnTBES');
INSERT INTO public.users(id, created_at, updated_at, name, email, password, address, address_map_latitude, address_map_longitude, main_phone_number, secondary_phone_number, identification, ruc, api_token)	VALUES (6,'2020-01-11 13:47:31','2020-01-11 13:47:31','CASANOVA ROJAS MARLY YIMABEL','marly.casanova@turismo.gob.ec','eyJpdiI6IkQ4SXFobzNsMXFRSFN4ZHBaRkdXaVE9PSIsInZhbHVlIjoic0JnN1lSVUJDK29rOHdZM1Zkaitha0Q4aWVQTkp4TXhZT0tsOFJ3KzVIMD0iLCJtYWMiOiJjNTVhODdiMDg3MzViMDkxYzA4NDNkMTYxZmRhOTc0MWE1N2IwYTJlMmM0NDY2MDIxNWMzZGEyZjczMzMwZTE2In0=','',null,null,'0000000000', '0000000000','1308972627','1308972627001','jJrXEjOJKF4Rl5XfDTcbrzsf1bYXZXrikz3dv5TnnlWHuBX5bDAjK54Nss5niyy2');
INSERT INTO public.users(id, created_at, updated_at, name, email, password, address, address_map_latitude, address_map_longitude, main_phone_number, secondary_phone_number, identification, ruc, api_token)	VALUES (7,'2020-01-11 13:47:32','2020-01-11 13:47:32','LÓPEZ CISNEROS CHRISTIAN HUMBERTO','christian.lopez@turismo.gob.ec','eyJpdiI6IkJPTUFCRW12NVI2WWRNNTUyRzR6Tnc9PSIsInZhbHVlIjoiUGh1OFAzSVFTbnRWUEozcklTV0RGWWVmclA3S2xvSU02VkZUd3lRbThYVT0iLCJtYWMiOiI4NmIzYmRiNTM4NWZhMDAxMjNjZGJkOTk3NDFmNDExY2RlMmM3MDhlNGZjZWFhZTg4NmI1NGFmNjU1MzU4NTdiIn0=','',null,null,'0000000000', '0000000000','1712417789','1712417789001','4vKRCptrBvg4osuqfxQgUlohR2ICw0sw2ofECcY6otuIA8IFa8lsbCS68zjMO8cn');
INSERT INTO public.users(id, created_at, updated_at, name, email, password, address, address_map_latitude, address_map_longitude, main_phone_number, secondary_phone_number, identification, ruc, api_token)	VALUES (8,'2020-01-11 13:47:32','2020-01-11 13:47:32','CADENA VÁSQUESZ GABRIELA JICENA','gabriela.cadena@turismo.gob.ec','eyJpdiI6InhzT0U0alpycGtnVnI1M2RISW9BMWc9PSIsInZhbHVlIjoiMFNiak96RGdmQkx1TFRhT3JtYlwvU2FyT01XUHVrckhJQjlLZlwvQmUyK0l3PSIsIm1hYyI6ImY0Njg5NWEwNzA1Yzg4NTM4OTdmMTM3NmQ2ZjI0MGQ1OTlkOGJkOGM0ODNiNjllNjQzNWIxOTg4ZTljMWVkNmUifQ==','',null,null,'0000000000', '0000000000','1002617643','1002617643001','iCEMj270fYGnZZojCSEsp7eERiAUPoy8ijox2Aw2EdfzFNxyYByL6r9jzB73vvIq');
INSERT INTO public.users(id, created_at, updated_at, name, email, password, address, address_map_latitude, address_map_longitude, main_phone_number, secondary_phone_number, identification, ruc, api_token)	VALUES (14,'2020-01-11 14:05:17','2020-01-11 14:05:17','OLGER EUGENIO GAVILANEZ PACHECO','olger.gavilanez@turismo.gob.ec','eyJpdiI6IldjNDZQbDAwc21JNE04cGx6b09EK0E9PSIsInZhbHVlIjoiQ1dFY05kUjN0NkJZNDFwb1BTVmk1VzJiQUtTdTlwdlFQVHR5cEVWZ0x3Yz0iLCJtYWMiOiJlMGZlMGFhNzRjYTI1YWVkMDY2MTBmNjFhYTc1ODkyMjYxNDU5MzMyZmM2MzM5MWRmYWQ0NzQ2ZTE4YTczNjAyIn0=','',null,null,'0000000000', '0000000000','0301733507','0301733507001','d2VHQywMJyrl5t4o6Ljk55wIwr8dX0grg47O6gm02faHapP3p26KuzXfuBVafqZ0');
INSERT INTO public.users(id, created_at, updated_at, name, email, password, address, address_map_latitude, address_map_longitude, main_phone_number, secondary_phone_number, identification, ruc, api_token)	VALUES (16,'2020-01-11 14:05:17','2020-01-11 14:05:17','CARCELEN CÓRDOVA RICARDO ESTEBAN','ricardo.carcelen@turismo.gob.ec','eyJpdiI6ImNcL0xBakFscmVTdUp0OHJjRGdjUGNRPT0iLCJ2YWx1ZSI6IkxxQWdqVks5Z212RHdjRVFRRFBnb2p5RnIyTSt3MHNNd3JUWEdld1wva2xRPSIsIm1hYyI6IjI0NmE1OTM0ZGNlNjUyZWIxYzUwMzdmODNhNDgxYjMxNTE5MDdkZDYyMmI5ZTMwNGI2NDdlMGMxOGU2NWRhYTkifQ==','',null,null,'0000000000', '0000000000','1716437718','1716437718001','YYduBPWiQ7N18akzjbeUumfWFD79Jn5VK0rqOSU6RNSp42TnYaTt6nPTHs6bKPFJ');
INSERT INTO public.users(id, created_at, updated_at, name, email, password, address, address_map_latitude, address_map_longitude, main_phone_number, secondary_phone_number, identification, ruc, api_token)	VALUES (17,'2020-01-11 14:05:17','2020-01-11 14:05:17','SALAZAR TORRES VERÓNICA ANDREA','veronica.salazar@turismo.gob.ec','eyJpdiI6ImRKVEdpdVExc2g3cnl2bmVlU1haelE9PSIsInZhbHVlIjoiTzFCVmh3eW0wUnF0NGpOY0Izb3pyeUdvU0hHcndoSjRUZUU2SmxDRHM5WT0iLCJtYWMiOiI3NDk4YTA5YjMzM2RhYzZmZjllNWEwOWQ5ODVhYzAwZWVjYzhjNjlmODM1OGFmMTQxNmFmYjJkMzYxYTc4ZDNiIn0=','',null,null,'0000000000', '0000000000','0603328824','0603328824001','XIGSVKrg5sz01O68g48cC5IVY2Nq8MHaHFizmtn76MZbpPrPOCVNSRQFFQ7ljxiO');
INSERT INTO public.users(id, created_at, updated_at, name, email, password, address, address_map_latitude, address_map_longitude, main_phone_number, secondary_phone_number, identification, ruc, api_token)	VALUES (18,'2020-01-11 14:05:18','2020-01-11 14:05:18','CHOLOQUINGA UNAUCHO LUIS SALOMON','luis.choloquinga@turismo.gob.ec','eyJpdiI6InZtc3Q0K243VThxUUEzZDNTNW56OFE9PSIsInZhbHVlIjoieWYybDhjNHZLN2R3YkRHWWpITmJMTHBiN3A0d1NMcXd6MmRrb3dMc1JLRT0iLCJtYWMiOiI2M2NhMWQzMGZiYjIwMzE0YzQyNGFkNjIyNGExZDcwZjg4OWI4ZDQ3NjM5NDA2ZjliMDgxMmUyY2FlOTJmYTMzIn0=','',null,null,'0000000000', '0000000000','0502725344','0502725344001','xQS3hk0JQJ6DI0pfyZ6jHXMxXN5S2N97Ns7tMOwPAMjQEp8cSWWbeaWAMtrVgkf5');
INSERT INTO public.users(id, created_at, updated_at, name, email, password, address, address_map_latitude, address_map_longitude, main_phone_number, secondary_phone_number, identification, ruc, api_token)	VALUES (19,'2020-01-11 14:05:18','2020-01-11 14:05:18','OÑATE REA SONIA MIREYA','sonia.onate@turismo.gob.ec','eyJpdiI6Iis3cnphWE4xMlg0ZE8wRXdGRFwvZ0d3PT0iLCJ2YWx1ZSI6IndMWTZIa3lNVzhlRmlpdmZhREFGZUVHYlJXTXA4M0RuRFg4dEY1ejdwd009IiwibWFjIjoiZDhmYjU0MDBjY2MwMzBjYWYwMjQ4YjlhZDViMzExMmEzMzI0ZDJiZWFiMzliMjIwZTNlNzhkNzNmN2JjOTk4NSJ9','',null,null,'0000000000', '0000000000','0916396682','0916396682001','VqyHjfUOkB3cS4ohpCxDt3N37OvgirBDKfFzaBdKxORIYvf2oo7CAuzog7SO8H9f');
INSERT INTO public.users(id, created_at, updated_at, name, email, password, address, address_map_latitude, address_map_longitude, main_phone_number, secondary_phone_number, identification, ruc, api_token)	VALUES (20,'2020-01-11 14:05:18','2020-01-11 14:05:18','ELJURI ARCOS ROCÍO BEATRIZ','rocio.eljuri@turismo.gob.ec','eyJpdiI6IkgreVhzS0tSRFdlTkpNdU9keTZEYkE9PSIsInZhbHVlIjoiMnoycmNUSUlpT25aaXdvTTJCa00yaGtCXC9IZWd1YVdOXC95OFM3bEw5NEFVPSIsIm1hYyI6ImNmMWRlYzliMjRjOGIxNmMwZmFiOTRiNWQxMjhmNjVlNTg3ZDY4NWQ4ZWU5YzMyZjhiZjE0YThiYmIwNDg5NWUifQ==','',null,null,'0000000000', '0000000000','1722385786','1722385786001','mIWtIuUWOFA85xMHm5ZjVZx0jzorwmtZOLXGtjFnAIowxMZtvZjyeoRSnxZ0RSSP');
INSERT INTO public.users(id, created_at, updated_at, name, email, password, address, address_map_latitude, address_map_longitude, main_phone_number, secondary_phone_number, identification, ruc, api_token)	VALUES (21,'2020-01-11 14:05:18','2020-01-11 14:05:18','VARGAS SALGUERO SANDRA ELIZABETH','sandra.vargas@turismo.gob.ec','eyJpdiI6InNwN3hpS3NHcHRuMmJ6cDlXRFwvazRBPT0iLCJ2YWx1ZSI6ImlXN2NcL2draHM4aWh3M2dEdWR4RWxtU21BZjRBcXIzamJcL1JYYXVVU3lSOD0iLCJtYWMiOiIzMTI3ZTRlMTljNjU4YTdiOTUwYzViYjE4ZjUzMWY3ZjQzY2E5MTdjODU4MDAxMTg2NTRlZGIzZjZiYjdhNmI2In0=','',null,null,'0000000000', '0000000000','0604009191','0604009191001','YqK75hbKT6nTu9WItQWcoyzM5svEexaMh4sc13NBD2rUy7ASS2elk7hjVxUSBRdI');
INSERT INTO public.users(id, created_at, updated_at, name, email, password, address, address_map_latitude, address_map_longitude, main_phone_number, secondary_phone_number, identification, ruc, api_token)	VALUES (22,'2020-01-11 14:05:18','2020-01-11 14:05:18','DURAN HERRERA NELLY MARGOT','nelly.duran@turismo.gob.ec','eyJpdiI6InhmNFJXUmdmNzRrbTVzT1Z4TjhIM0E9PSIsInZhbHVlIjoiUld3TjMyd2JqOFEzT3AxXC9pYnZaYWx5aHVEeXpFOVpieDJtbEYxXC9uMzV3PSIsIm1hYyI6ImJhNjk5Y2NmM2FlMzQ2MWY0M2M0NjA4NjA3MGNiYmQ4OGYwNTdkODgwZDhmNjZlNTQzMWNkMWFlZDc5ZGFkNmEifQ==','',null,null,'0000000000', '0000000000','1600280646','1600280646001','qHCkkqgFFq7bg8NKQea42zOggQbEzBX73kMYfCjjF2K3sjpz1Kg1Dajj4AGU4W2W');
INSERT INTO public.users(id, created_at, updated_at, name, email, password, address, address_map_latitude, address_map_longitude, main_phone_number, secondary_phone_number, identification, ruc, api_token)	VALUES (23,'2020-01-11 14:05:19','2020-01-11 14:05:19','MACHADO ROMERO FREDY MARCELO','fredy.machado@turismo.gob.ec','eyJpdiI6Ik0xdlRJaytnQ2NWa05ITGw4Q1NJNGc9PSIsInZhbHVlIjoiWUpKY1wvVXU2OCtDWlBrQVdPWmtVcEFZUzFoXC9uQldlRUs2XC9TMzdCb202MD0iLCJtYWMiOiJkNTE5YTVkMzdiMWI2MWZlOWE4ODUwNzIyZTE1OGYxODcyNWFiZTBiNzFlMzg5NjQzOWE4ZTE0ZWVhZmU3NmZkIn0=','',null,null,'0000000000', '0000000000','0603229212','0603229212001','jIT49XmWa3TKdbcO2GMsnSIpdVkkYbAf4wGKjGO7Z9crU467ChmRbuCzRuWa16KS');
INSERT INTO public.users(id, created_at, updated_at, name, email, password, address, address_map_latitude, address_map_longitude, main_phone_number, secondary_phone_number, identification, ruc, api_token)	VALUES (24,'2020-01-11 14:05:19','2020-01-11 14:05:19','ANANGONO ROSERO ROLANDO RENATO','rolando.anangono@turismo.gob.ec','eyJpdiI6IkJFY21YV215akZPU2xlUnVVV3RWY2c9PSIsInZhbHVlIjoiUEdMaXhlSzRFckt3SU01TG04WjZwRTE4YjNFOTdyUDluRHpyNlArTk1OST0iLCJtYWMiOiI3NmNhZDIwNDlhY2MwN2JmNDdjYjkxNjNlMWM4Nzk1ZTE1ODFlZTU1MzY2YjIxNDVmNWYyMzg1ZjVhY2MzZWRkIn0=','',null,null,'0000000000', '0000000000','0103847356','0103847356001','kUAnj6l2WiVVlDTxQEwM9RRxIU2hcTjjmlkYOKKDfb88wGb8T6qu92LhMWswBPC1');
INSERT INTO public.users(id, created_at, updated_at, name, email, password, address, address_map_latitude, address_map_longitude, main_phone_number, secondary_phone_number, identification, ruc, api_token)	VALUES (25,'2020-01-11 14:05:19','2020-01-11 14:05:19','PINEDA GALLO MARTHA EDELINA','martha.pineda@turismo.gob.ec','eyJpdiI6InZCOTBLUHVzdTNxWWt6Q3B1SXNwZEE9PSIsInZhbHVlIjoiV3pQc2ZGWG5HYUxRUDBVMUExbnVwUm9oUzhKZllFNTk5cHZyd0N3SXJlbz0iLCJtYWMiOiI4ZWEyMWNhY2U2Y2M2MTlmZjAwMjZkYmFkYzVkZTc2ZWQ3MTNhNjQ5ODJiY2RiMjYyNzNiN2UyNDhmMTg4YzFlIn0=','',null,null,'0000000000', '0000000000','1801844786','1801844786001','r2Lm74j0g4LjbU6QuFVj00ccIbk2rogEpnF1AajPrxC3R4HOXT0QMu9rSGwPfMfo');
INSERT INTO public.users(id, created_at, updated_at, name, email, password, address, address_map_latitude, address_map_longitude, main_phone_number, secondary_phone_number, identification, ruc, api_token)	VALUES (26,'2020-01-11 14:05:19','2020-01-11 14:05:19','RODRÍGUEZ DELGADO MARÍA FERNANDA','maria.rodriguez@turismo.gob.ec','eyJpdiI6IkVPNlFNQmNvY0hzQVBiRnRKb0t4REE9PSIsInZhbHVlIjoiTmFcLzhNT1BQQ3FhclBcL0ZVNUJldG8wVE1vVmRIRWsyZU1WaWFLYUl3RjRRPSIsIm1hYyI6IjA2MmVkMWY2ZmI5ZDNhNzE0OGRhMjBlNjJjYmI2MzVmYmJjMjg3NmE1MDcwMDBjMjY3ODEyMzQxMTI2M2IzYzEifQ==','',null,null,'0000000000', '0000000000','1308670759','1308670759001','RU7GfL54rcEvJNmwDgZJw1OzFEpeFyRbiUZQNoSQdo91LdKNavTeapH0L9bu6Ysv');
INSERT INTO public.users(id, created_at, updated_at, name, email, password, address, address_map_latitude, address_map_longitude, main_phone_number, secondary_phone_number, identification, ruc, api_token)	VALUES (27,'2020-01-11 14:05:19','2020-01-11 14:05:19','LOOR BRAVO JESSICA PAOLA','jessica.loor@turismo.gob.ec','eyJpdiI6InA3dSs5aEZGWDNvVXZXS1huVG1rS0E9PSIsInZhbHVlIjoiTGh1NzZHZnBiN1dNYVR2c2o5cm84Wk80cFJLZjA0d00zOEUzaXJ0QUdwbz0iLCJtYWMiOiIxMjg0NjBkMmU4Y2RmMThlNThkYmRjOTkwY2FiMTM3NjQxM2Q2ODA2ZDRkM2Y3ODM4ZjYwYjA3NjNjNWQwMTY1In0=','',null,null,'0000000000', '0000000000','1309097382','1309097382001','1vyiC4voSGM5TBUdSHKOXNeBBwfTININiQtyYLbWJD6kI0i79DP7r1sTM5KMaxSi');
INSERT INTO public.users(id, created_at, updated_at, name, email, password, address, address_map_latitude, address_map_longitude, main_phone_number, secondary_phone_number, identification, ruc, api_token)	VALUES (28,'2020-01-11 14:05:19','2020-01-11 14:05:19','DELGADO MENDOZA LADY DENISA','lady.delgado@turismo.gob.ec','eyJpdiI6InpUVTh2cTVNU1A2UWRHUkhRdjk2TEE9PSIsInZhbHVlIjoiY21BVTVKa25vb3dMUmxadDdpYThJQWlMdjFveEpcL05qUEpnUXB3Q0NKdjg9IiwibWFjIjoiYzU0ZmVlM2FmYWRkMDFlNTEwZjY4NWQwNjgxMDk4YmRjMzU5ODRlYmE1YjU4YzQ5ZDc3Mjg0OWFiM2IxZjA2ZSJ9','',null,null,'0000000000', '0000000000','1312515610','1312515610001','ugQA78wzNk3VTnM5SwHmwAfbgfgmg6FaAsd2lz2AZN9mfzF0KrWuttisO8XZST4D');
INSERT INTO public.users(id, created_at, updated_at, name, email, password, address, address_map_latitude, address_map_longitude, main_phone_number, secondary_phone_number, identification, ruc, api_token)	VALUES (29,'2020-01-11 14:05:20','2020-01-11 14:05:20','CEVALLOS ARTEAGA SHATTY RAFAELA','shatty.cevallos@turismo.gob.ec','eyJpdiI6InI2NnB6bDdQNXFWYkNuOEtXYUl6OXc9PSIsInZhbHVlIjoibnplcE4yRDZPejVyRmVRSEpaXC9BQWxYVVFBa1VzeWp4bEh1UHZJUlVOV2c9IiwibWFjIjoiYmY2YTU1Y2NjOGEwYTEzYWJjZmFiMTQwNTAyY2FlMGQyMTk1OWVmM2ZmYzRjNDI3NmRhZmI0NTMyMmI1ZmZkNyJ9','',null,null,'0000000000', '0000000000','1307671618','1307671618001','KG9R4q9xni7vr4RuU2BXOX5VnRWpKIRxG02GInQB8sWJPivvl4hSrvG3Za3LSqBb');
INSERT INTO public.users(id, created_at, updated_at, name, email, password, address, address_map_latitude, address_map_longitude, main_phone_number, secondary_phone_number, identification, ruc, api_token)	VALUES (30,'2020-01-11 14:05:20','2020-01-11 14:05:20','HOLGUIN MACIAS SANDY LISBETH','sandy.holguin@turismo.gob.ec','eyJpdiI6InAxRExDVTdcLzNXdjFvaTNBNytab2V3PT0iLCJ2YWx1ZSI6Ik0wSFVFeUhLeDMraUdOWXdUeUZuN2hUWmZ6R1QwZnJ2RTc2UzVOZTdcL3pVPSIsIm1hYyI6ImY5YTRjNTBmNDFhMzlhZTRmNDVlZmZkMWIxYzhiN2FmYmViZjQxMjA4MzY5MGJmZjQ0NWFhOGM2MTRkOTIyMDkifQ==','',null,null,'0000000000', '0000000000','1313237412','1313237412001','EqLVdhOlw5L3Ys6b9LA7S5rF9AeWSOxoe8B704QuMWaciWooesvr39Fqs5SY7Yss');
INSERT INTO public.users(id, created_at, updated_at, name, email, password, address, address_map_latitude, address_map_longitude, main_phone_number, secondary_phone_number, identification, ruc, api_token)	VALUES (31,'2020-01-11 14:08:58','2020-01-11 14:08:58','VILLEGAS ROMERO JENNY ELIZABATH','jenny.villegas@turismo.gob.ec','eyJpdiI6IlVvcTRZRXRSYzJyME93UU9sS3ZuUEE9PSIsInZhbHVlIjoiSTFhc21qM2VNc3VQdHl1RDh1SjJ2OW42aUR2XC94cmozOFNSZGtWYklvT0k9IiwibWFjIjoiNzE0YWFmZWE2YzlmN2ZlMzhmODgwNjIxNThlY2ZjMDJiOWNkNmI1MjFjMTEyYjM3ZDM2MWRmNzlkMTY0MWY3MSJ9','',null,null,'0000000000', '0000000000','1712912359','1712912359001','nwku2GBOCYV1p5b9WwSEWggZI7Nu9jsxEKBlp0WsjaBmFb6JVDe2T9enh6Oozl4T');
INSERT INTO public.users(id, created_at, updated_at, name, email, password, address, address_map_latitude, address_map_longitude, main_phone_number, secondary_phone_number, identification, ruc, api_token)	VALUES (32,'2020-01-11 14:08:58','2020-01-11 14:08:58','VILLACIS OSTAIZA CARLA PAOLA','carla.villacis@turismo.gob.ec','eyJpdiI6Inl0R3huYm5PcnNVTzN5bDVYc000Q1E9PSIsInZhbHVlIjoiejZIRUxKSEhyK0RpbzhGOUNRWFNjVUpwdUg5OW9LYkpmNFo1NytFUE5Ubz0iLCJtYWMiOiI4ZGJmYWEyODk5OGIyZGU5MTQwMDYyMDM0OWYxZmExYmFiYmExMjk4OGU0ZDNkODU4NzRhMDJmMTViYjYzYWVmIn0=','',null,null,'0000000000', '0000000000','1714848569','1714848569001','WN0weZEOPVwsloU6eDKh4eBeRxfHB2Jsmcz90G6w5IF8XeltR45g1uZrCJuglyQ4');
INSERT INTO public.users(id, created_at, updated_at, name, email, password, address, address_map_latitude, address_map_longitude, main_phone_number, secondary_phone_number, identification, ruc, api_token)	VALUES (33,'2020-01-11 14:08:58','2020-01-11 14:08:58','GARCIA NARANJO ROSITA ANDREA','rosita.garcia@turismo.gob.ec','eyJpdiI6IjFQMGdZckJwTXVNTEFWTjgxVlZmQ0E9PSIsInZhbHVlIjoiNU1acWwxcXZYNWVERnFYamVnNUJNVDRER21TTlcxQ0MwVVYzV2RnMUlaND0iLCJtYWMiOiJlYzg2MjE5MjQ0ZTJkZWIxYzJjZDQ3N2NiNGU2NjAwYThiYzkyYmY0ZWFkNzQ1NGM1MzE5ZWQ1ZDRjOGQ0ZThmIn0=','',null,null,'0000000000', '0000000000','0201803913','0201803913001','twF4PxtNRVPL6hP4mJLBv16UT5LPJhYdFN4WHBTRN7ZFjU2wKMdYR4w6yADwQpw1');
INSERT INTO public.users(id, created_at, updated_at, name, email, password, address, address_map_latitude, address_map_longitude, main_phone_number, secondary_phone_number, identification, ruc, api_token)	VALUES (34,'2020-01-11 14:08:58','2020-01-11 14:08:58','DOYLET LÓPEZ CONAN ANDRES','conan.doylet@turismo.gob.ec','eyJpdiI6IkZSS0o0YnFkXC9lR3ZqcXo0b3lhR013PT0iLCJ2YWx1ZSI6IlRVZVJ0Q0tMbE9DRlNmeDBKRHRBd1NGQ05RZVo2RHcrRzFXVnNTOTRpM1E9IiwibWFjIjoiODEwMjJjNzVjNTg4ZWU3NWU4OTlmOWI5ZDlkN2ZjMjI2NmQyMDY2ODAyZDA2NGZhZmU1YTQyOTU4ZDJlYjM2MiJ9','',null,null,'0000000000', '0000000000','0910535871','0910535871001','Y21elV7RzTUxqz2teHcqorI4nvMezpraRmyaU6kVLr5ByiEonIEIJdRMbcOwNCRn');
INSERT INTO public.users(id, created_at, updated_at, name, email, password, address, address_map_latitude, address_map_longitude, main_phone_number, secondary_phone_number, identification, ruc, api_token)	VALUES (35,'2020-01-11 14:08:59','2020-01-11 14:08:59','FLORES BARZOLA  JOSÉ LUIS','jose.flores@turismo.gob.ec','eyJpdiI6IkFwd1hPOExLZEZzOHJMTXJzXC85cytnPT0iLCJ2YWx1ZSI6ImNKTlhuZzVzQTExTTcwZWhMQnJvRGVZQ1JLcjNZMG12V2RBeFVqZnFld3c9IiwibWFjIjoiMWJkNmFlMDczOWIxY2Y1NDM2MmQyOTM1MzVlNjQyMGVmYmM4ZjViZjA4YzJlNmZiMTQzMzU0MjhmM2VhNjBjZSJ9','',null,null,'0000000000', '0000000000','0917057283','0917057283001','QAs3hkYrxsPFRLsK5PtUfcrp1vTdTIWBKOMgO04dLvZjF9XjZjXNMfznzPq4ibAg');
INSERT INTO public.users(id, created_at, updated_at, name, email, password, address, address_map_latitude, address_map_longitude, main_phone_number, secondary_phone_number, identification, ruc, api_token)	VALUES (36,'2020-01-11 14:08:59','2020-01-11 14:08:59','ALCIVAR DOMINGUEZ DANIELA','daniela.alcivar@turismo.gob.ec','eyJpdiI6IjN0cDJIdTN1bUFleE1tOU52UURcL1ZBPT0iLCJ2YWx1ZSI6IjJhME9GZUxEUjV1T0pwUWpiSkVPcjdqcTl3SzRhWmVleHdZTm92WWZLOWc9IiwibWFjIjoiYmNjZWNjN2E2MmZiZjU4MTJiZTNlOGJiMDJlN2I3ZTNjNjI4ZDlkNDI0NDBkZGY4ZjI2OTM3NDY3MTgyYjlkYSJ9','',null,null,'0000000000', '0000000000','0917935983','0917935983001','UurwfzAE1Ko2gGQ0cvkvr1d0lz2kc4xBvSV7u8GaQv8uVlycV8cSS9o6Cr2qKbna');
INSERT INTO public.users(id, created_at, updated_at, name, email, password, address, address_map_latitude, address_map_longitude, main_phone_number, secondary_phone_number, identification, ruc, api_token)	VALUES (37,'2020-01-11 14:08:59','2020-01-11 14:08:59','JARRIN MERINO JORGE ANDRES','jorge.jarrin@turismo.gob.ec','eyJpdiI6ImlobTJ3OXhBTlFQTUs3XC96cVozZlVBPT0iLCJ2YWx1ZSI6Ikt2dHhtSlUwQXRSZXhleHhRaXhTek8za1wvTDVySjQ3RHFRTkhNYjhEeWs4PSIsIm1hYyI6ImI2NWI5OTY2NWI1ZTI5YzU0YjNhZGY4YmIyNTMxODdjNDk2MDVlZmU5MDcwZWYwZDU1NWRkN2NhOTJhMWJiOGMifQ==','',null,null,'0000000000', '0000000000','1715811632','1715811632001','YqBUCbbi8KcKLIZq95pXllJVkNJH01HqUgs6AHlKQK22E6QWu1tXWQieoJLAUBPf');
INSERT INTO public.users(id, created_at, updated_at, name, email, password, address, address_map_latitude, address_map_longitude, main_phone_number, secondary_phone_number, identification, ruc, api_token)	VALUES (38,'2020-01-11 14:08:59','2020-01-11 14:08:59','FERNANDEZ GUZMAN ANDRES XAVIER','andres.fernandez@turismo.gob.ec','eyJpdiI6InJvdDVUWEY2bXN1Y2RldUFHSmN6elE9PSIsInZhbHVlIjoiZ2NVTU80Y29NWnhDeDlnR1ZpYllMMmtKVE1oRFRsU0JCZnZkMDdJaGs4Zz0iLCJtYWMiOiJjMWRmY2I2ZjE4NDU0NzYwNDc2YWYyNjQxZmE3MWZlMmI2NWYxZGQ3NmQ3NTU4MDQ2ZTMxYmE4Y2FjNzBkYzY5In0=','',null,null,'0000000000', '0000000000','0908110141','0908110141001','AAVYa3bBdxCmX81WJDZC4A1DmHqrNigp9K0Kl2TW26Z15N95QOwZjaMzjpNkfkAk');
INSERT INTO public.users(id, created_at, updated_at, name, email, password, address, address_map_latitude, address_map_longitude, main_phone_number, secondary_phone_number, identification, ruc, api_token)	VALUES (39,'2020-01-11 14:08:59','2020-01-11 14:08:59','HOLGUIN MUÑOZ GLADYS GEOVANNA','gladys.holguin@turismo.gob.ec','eyJpdiI6Ill1YjRmNktibVVOeGUrWjgzSExpYVE9PSIsInZhbHVlIjoic25sXC9QYnZJWGFwYVlOZG9WN0U1a0c1NU9uWkFRTlF6eElscWo3NEN3VGs9IiwibWFjIjoiY2VkODI4ZjllNDk1Njk4ZDA4ZDliMzE5YTE2YWJlNTQ5YjNjYmNhMTdjZTFlYTQ3M2QzZjdlZDNjMTYzNTI1YSJ9','',null,null,'0000000000', '0000000000','1204172500','1204172500001','vXbsGd1MWpYqggDB0gJSPOeTu9AEOESf2kzjsogB62z7DXr6nxm4GkeBebVdju2d');
INSERT INTO public.users(id, created_at, updated_at, name, email, password, address, address_map_latitude, address_map_longitude, main_phone_number, secondary_phone_number, identification, ruc, api_token)	VALUES (40,'2020-01-11 14:08:59','2020-01-11 14:08:59','TOMALÁ ORRALA CARLOS ALBERTO','carlos.tomala@turismo.gob.ec','eyJpdiI6Ilg4b3VRQW5Ya0FCNjh0encwSks0cFE9PSIsInZhbHVlIjoicmtIREtUb2hrS0FlbXBqTnA4V0twNEJkb1EzUTJsc0ZQR012THZnemZ1bz0iLCJtYWMiOiI4ZTA3MmZjNjdhOGEyNGQ3M2Y5ZTYxZWYzNTY2MmUzMjZlMzBjMTQ2MjhkMjlhZWJhYTljMDJjODg5ZDNhZmRkIn0=','',null,null,'0000000000', '0000000000','0917252454','0917252454001','s2a3zLmjw9cluSrH6DELa7RhQWekqrJQELGApMhJD7D71x0N1J0dazTCVQDGgdSH');
INSERT INTO public.users(id, created_at, updated_at, name, email, password, address, address_map_latitude, address_map_longitude, main_phone_number, secondary_phone_number, identification, ruc, api_token)	VALUES (41,'2020-01-11 14:08:59','2020-01-11 14:08:59','ANGEL REYES JULIO FRANCISCO','julio.angel@turismo.gob.ec','eyJpdiI6IlZrcm1Ld0JKaCtrb1pnK2xoWUp0RXc9PSIsInZhbHVlIjoiZHlmM0FlTTJldnVMc1dRTzNVTXJJXC9mV2pUaFNBOFBUOERNRWhcL1crUUZjPSIsIm1hYyI6IjIzMTE1Y2RhNzFiMjA1NGEwYTdhM2UwZGI0YzhmNTdlZTY4OGUwYTBjNGVjNjM5ZjFmMGIzZmY0NjVlMjgxNjQifQ==','',null,null,'0000000000', '0000000000','0923337489','0923337489001','3Y0f0gEOWi1TnK5NHN1FSh7BhsmCfQ5Nc2NDjqbEYFoIktNWa9wj0BsZiSNDok1M');
INSERT INTO public.users(id, created_at, updated_at, name, email, password, address, address_map_latitude, address_map_longitude, main_phone_number, secondary_phone_number, identification, ruc, api_token)	VALUES (42,'2020-01-11 14:09:00','2020-01-11 14:09:00','MARTINEZ VELEZ JAIRO RAMIRO','jairo.martinez@turismo.gob.ec','eyJpdiI6InE2NWNQWEpWXC9Pb29LSUUwbXZWem13PT0iLCJ2YWx1ZSI6InZZREJyc1BFdUdGOE12NmloanpGNkRMSk9MRTFHakh5RTgwUkd4YzFZalk9IiwibWFjIjoiMjQ2ZjZmMTllNWM1NmJjNDMwODk5ZGZiNDA0ODU4YmYzM2RjOGQ3YTBmNjNiYWIxNGU2MTkxZmExNTA0ZjFhNCJ9','',null,null,'0000000000', '0000000000','0104367685','0104367685001','l8Th7ByysPMUcVEnPkreYjjTIrizw5kWqo1g2EP5Tn6pyQiUUyfmc5YxUmFhZzu4');
INSERT INTO public.users(id, created_at, updated_at, name, email, password, address, address_map_latitude, address_map_longitude, main_phone_number, secondary_phone_number, identification, ruc, api_token)	VALUES (43,'2020-01-11 14:09:00','2020-01-11 14:09:00','CABRERA MORAN STEFANIE DEL ROCÍO','stefanie.cabrera@turismo.gob.ec','eyJpdiI6IllzbjJFUjJrNUIyNjVheDNCT0lxNXc9PSIsInZhbHVlIjoiXC9VV3ZrMjlXalRSQzBNKzdqNms1ck9VTWszeXFoVWg0N2l6R1wvMm9CU2JRPSIsIm1hYyI6IjBmMjRiNWM0MTZhZjI3ZGJjYTlhYTJhYmQ5NmFlZDZjYTBhMWZlMjRkYjhjMjBhZWM3MzYzNTgyNjY3MmUwNDMifQ==','',null,null,'0000000000', '0000000000','0301315370','0301315370001','LbrBwUg1c1T15sBLxCcsEXHZQerG3ynFrPexbwW0TKKqb44eTqFZuHQl1DhUSbaq');
INSERT INTO public.users(id, created_at, updated_at, name, email, password, address, address_map_latitude, address_map_longitude, main_phone_number, secondary_phone_number, identification, ruc, api_token)	VALUES (44,'2020-01-11 14:09:00','2020-01-11 14:09:00','MENDEZ JARA LEONOR DANIELA','leonor.mendez@turismo.gob.ec','eyJpdiI6IlN6WDRuYWgyeEZLY242NDFvZXEzUWc9PSIsInZhbHVlIjoiTXF0SkdPZUNiclFwejhBSngwQk0xZ09INWt2TDE2d1BQXC9VYWlWNnVFR289IiwibWFjIjoiNzRkZTFiNjdiMGE3MTc5ZjU1NmIzODc5ZGJlMGE0N2RlNGNmZGU4N2IyZDQ1ZDIxNTI4MGJhZTVjMjliMjVkZiJ9','',null,null,'0000000000', '0000000000','0301380903','0301380903001','qxCvlaKbmvs0DnVRj9QuYQBGSM8d3RT9tq7xeSucaIR6g43UDC4Kvh5Gkw3LEmbi');
INSERT INTO public.users(id, created_at, updated_at, name, email, password, address, address_map_latitude, address_map_longitude, main_phone_number, secondary_phone_number, identification, ruc, api_token)	VALUES (45,'2020-01-11 14:09:00','2020-01-11 14:09:00','RODAS MACHADO MAURICIO FERNANDO','mauricio.rodas@turismo.gob.ec','eyJpdiI6Ikd0ZXZnRTVXTGtqN1dZSVVLV0RcL0d3PT0iLCJ2YWx1ZSI6IjFKWlQ4M2VOYmtjZ1VuWEQzRDNsblwvYmpOYjdvUVBcL3puNitETDl1RDZqUT0iLCJtYWMiOiJjY2E4OWVlM2I1MGZmOGVmOGRmMThkMTkwNTI0ZTJkZTg0NTc0NTRiNjU5MzA4MmI4MWRlYjgxNjgzYjY2NTk0In0=','',null,null,'0000000000', '0000000000','0103167813','0103167813001','vcQP5EWoHeqKGPPZsp9GmGPBS8xP3nmSQprfvdLFsmckiMxdUM2xjKrddzXUBTQ7');
INSERT INTO public.users(id, created_at, updated_at, name, email, password, address, address_map_latitude, address_map_longitude, main_phone_number, secondary_phone_number, identification, ruc, api_token)	VALUES (46,'2020-01-11 14:09:00','2020-01-11 14:09:00','SARMIENTO MIZHQUIRI MARIA FERNANDA','maria.sarmiento@turismo.gob.ec','eyJpdiI6IjZVU3lyQVRWYXFOUG00djJKTEYrSXc9PSIsInZhbHVlIjoiUlJ5OStwNHVhNXVJRWJcL2dLZnBJN0JlYU5PMytzSkFSRlBmY0pqNjJTb009IiwibWFjIjoiY2QxMmNmNDU4MDMwZjM1ZmU2Y2YyNDZhMDljZTE4YmIxNmQ4ZjBhM2ZmYTBjYWRlZTk5OGU5NWEyMjU0MDhiZSJ9','',null,null,'0000000000', '0000000000','0301184255','0301184255001','xid0Jw4JvzBmG20PvMRyVb33XBDddi2ifM85Ehe19TRv2chuHrO9gHsuM92uuMTP');
INSERT INTO public.users(id, created_at, updated_at, name, email, password, address, address_map_latitude, address_map_longitude, main_phone_number, secondary_phone_number, identification, ruc, api_token)	VALUES (47,'2020-01-11 14:09:00','2020-01-11 14:09:00','ESCANDON VALLEJO CRISTINA MARISOL','cristina.escandon@turismo.gob.ec','eyJpdiI6IlU3ckpzSnZIblZ4R2RqRmEwT0J1YXc9PSIsInZhbHVlIjoiUng2cnByRTloWGxmWTBDNnFrd0NkSkdNRmF3N29HanV6SHlzT1hQWUVVbz0iLCJtYWMiOiIwMWE5ODUwYTM5YWE3YWIzODY2ZTJiYWJmM2JlZTg1OWZjY2RiMmZlNjlkNmI2NDhlYTUxZGRjNzIyMmM2MThmIn0=','',null,null,'0000000000', '0000000000','1400434476','1400434476001','t73pB6t6mDOLVKawSXdWmI3p3p7w3ZjFB298A5ihtVlYSOX3oT5E0rgGbe97rEH5');
INSERT INTO public.users(id, created_at, updated_at, name, email, password, address, address_map_latitude, address_map_longitude, main_phone_number, secondary_phone_number, identification, ruc, api_token)	VALUES (48,'2020-01-11 14:09:01','2020-01-11 14:09:01','PEÑAFIEL IÑIGUEZ XAVIER GEOVANNY','xavier.penafiel@turismo.gob.ec','eyJpdiI6IlBnM3lMTjJuTWl2TGNJcVNHTkU1N0E9PSIsInZhbHVlIjoiYVR3OTZmVFFVYWJGTjFPak5YTDAwZTVlMGk5ZXdGd1BSNFRxUW40QUE0QT0iLCJtYWMiOiIxZjc1YTQ5N2ZmY2MwY2VmMzQ4MGY3NDY3ZjRkNWMyOTNmNzhlNjA2ZDI4ODQ5OTdlMjA2MzA2NWI4ZDNiYjcwIn0=','',null,null,'0000000000', '0000000000','1400682728','1400682728001','1mApOQYPKL3kovN2MpzimsCDY7Ws4HnZXIEqNMoofmvMXPhopT3KL603q4ToYXRh');
INSERT INTO public.users(id, created_at, updated_at, name, email, password, address, address_map_latitude, address_map_longitude, main_phone_number, secondary_phone_number, identification, ruc, api_token)	VALUES (49,'2020-01-11 14:09:01','2020-01-11 14:09:01','ALVARADO CASTILLO YOLANDA JACQUELINE','yolanda.alvarado@turismo.gob.ec','eyJpdiI6InM5VHNMbDlMK0tLWUppdEpcL3JqT093PT0iLCJ2YWx1ZSI6IkhkQ0Jma01Vd1JNNE1aV2JDTnFIMTd2VGNOSlBpamdGOWcwNjVyRWlwa3M9IiwibWFjIjoiNzI0NjZmNzk3Mzg5ZTk0YjUyYmYzNTNhMmZlNDYyMDU5OTQ0ZmU5NWE2ZWY3NDNhOWJlODg2YjJkYjYyNzhkMiJ9','',null,null,'0000000000', '0000000000','0702800418','0702800418001','5cTObQRenRnS7VSkfoo4GOc4RFaeAfjcdmAi9Xal7KnRH6mYkbsrJnTdK87ADmiy');
INSERT INTO public.users(id, created_at, updated_at, name, email, password, address, address_map_latitude, address_map_longitude, main_phone_number, secondary_phone_number, identification, ruc, api_token)	VALUES (50,'2020-01-11 14:09:01','2020-01-11 14:09:01','HERRERA TORO JULIO ALFREDO','julio.herrera@turismo.gob.ec','eyJpdiI6InV2eWNkcGRNSnBxd2crOEYraTNEVmc9PSIsInZhbHVlIjoiaEEyaVwvS1c2VE81ZVcraFFYeVBRQjArd3B4VWdqSnNJblwvUDVnejgrc3NjPSIsIm1hYyI6ImE1ZDY0MWM4ZjRlN2FjYzM5ODA3ZjExZTYzNTAxZDIxYTYxMjQ4MjM2NTQ4N2Q0Y2Q1NmVhMzAyZjU0ODlhMGUifQ==','',null,null,'0000000000', '0000000000','0703324541','0703324541001','62dtWrFVeBgjHFzXdNDF5oaBDevdZ0DpKPkwj6FC5w2A8Y0brmPk5AdpOB6vDWu9');
INSERT INTO public.users(id, created_at, updated_at, name, email, password, address, address_map_latitude, address_map_longitude, main_phone_number, secondary_phone_number, identification, ruc, api_token)	VALUES (51,'2020-01-11 14:09:01','2020-01-11 14:09:01','MACANCELA JUMBO VIVIANA ELIZABETH','viviana.macancela@turismo.gob.ec','eyJpdiI6ImtNaTVmazFUSFwvcTJjR2tISTRZNEh3PT0iLCJ2YWx1ZSI6IndhaGtJSmM0N2R6OFwvcjhSQXhpTWlRZDhKM3BvYXNSbytYRXN5OVpiMXRFPSIsIm1hYyI6ImRhNmIwNGQ3MDBlYjNlMjY1YjA5ZTNmNTkyMWY1Y2I0NWJiNzI1Y2NlMmFjODc1OWExODFhZjk4ZDdkODc0YzEifQ==','',null,null,'0000000000', '0000000000','1104267313','1104267313001','HEhLeW9LFIh2oagpHxkqzrt9wBOqcgBDVqhckNy5sMOELSYNjsGhh6V6PiTH6IC3');
INSERT INTO public.users(id, created_at, updated_at, name, email, password, address, address_map_latitude, address_map_longitude, main_phone_number, secondary_phone_number, identification, ruc, api_token)	VALUES (52,'2020-01-11 14:09:01','2020-01-11 14:09:01','RIVAS GUEVARA CARMEN SILVANA','carmen.rivas@turismo.gob.ec','eyJpdiI6IklxVWpWYlNjcDNydyt6clgwUzNhZ1E9PSIsInZhbHVlIjoib2swMUE2MjM3Z09qQ29lazhjV1pOWnB1RVwvejVQRGZKNnRjU012bmpSTTQ9IiwibWFjIjoiODQzYWE5OTc0MjY0OGM5ZmZhZTA3NDQ2OTgxNWU4ZGM1ZDI2ZDFiMmRiZDdkZTMxYjViNWNlOTVlOWUyODExYyJ9','',null,null,'0000000000', '0000000000','1104281157','1104281157001','PWnbhU0aTb2Du3xe2DhCtlk9V7mOwRN8fSBtLOkmECNSVZehNky3B1Xuimzl8GNT');
INSERT INTO public.users(id, created_at, updated_at, name, email, password, address, address_map_latitude, address_map_longitude, main_phone_number, secondary_phone_number, identification, ruc, api_token)	VALUES (53,'2020-01-11 14:09:01','2020-01-11 14:09:01','PARDO VILLALTA PAUL JOSÉ','paul.pardo@turismo.gob.ec','eyJpdiI6IlBOTnZqTHBENmFKbUdoMjZxSVZNckE9PSIsInZhbHVlIjoiTGNLc3ptWk1qUlVwWlVhZWR4YnZrTGpHWndXQ2JHZnFRbGhkWGtseDFGND0iLCJtYWMiOiIxY2JmOGYwZDIyNzM0ZjZiYmQ3OTVjYWUxYmQyOTFjNDZkMTY5ZmE4Y2I3NjRjMmMwZWIzYTNkMjZkYmUyNmNiIn0=','',null,null,'0000000000', '0000000000','1103773469','1103773469001','svis6Ynhh0SS9w2CUwUkThIlhMmtLkIhsShjWsbXXBrJaZP4sf4JYEG04nDV9w2e');
INSERT INTO public.users(id, created_at, updated_at, name, email, password, address, address_map_latitude, address_map_longitude, main_phone_number, secondary_phone_number, identification, ruc, api_token)	VALUES (54,'2020-01-11 14:09:02','2020-01-11 14:09:02','SALINAS APOLO ZULENY CESIBEL','zuleny.salinas@turismo.gob.ec','eyJpdiI6IlQ1SVV0UUY3RHYyanFOclhibHlGRHc9PSIsInZhbHVlIjoibkhUQkE1QlBJYlZGbmdCbTNFdURpdjBYWTcyZVlqbEFvdFVoRW5YT2ZMWT0iLCJtYWMiOiIzNmMzZDY0YjYzNWYxZmZmNGNiMTBlOTM1MjU3Yjg4ZDYzYjMzNmU1NGJlNWE2YzI4ZWNiN2M4MzZkNGJmYjM5In0=','',null,null,'0000000000', '0000000000','1900392018','1900392018001','ms3vCDkMWOsz37KY1MagWW3SykDhofy3jXQg8uRkzDrG8X6gSSMC5zYIiRMaTfV7');
INSERT INTO public.users(id, created_at, updated_at, name, email, password, address, address_map_latitude, address_map_longitude, main_phone_number, secondary_phone_number, identification, ruc, api_token)	VALUES (55,'2020-01-11 14:09:02','2020-01-11 14:09:02','CASTRO RENTERIA MARÍA JOSE','maria.castro@turismo.gob.ec','eyJpdiI6InZQK09WUERIMGliK2ttMnhna0RXalE9PSIsInZhbHVlIjoiT29NWTJVZ1hlMGNxanltb3kySmUwT0tmalg2a1wvTktRVU5JZjc4bEdxT3M9IiwibWFjIjoiZDkwY2Q0NzRlNjAxZDllN2ZlOWYxMTA4MTAzNDJlMDAwMDdmZjAxYTA2MmM0YjlkYWI5MDkxMzJjODAwNDgwNiJ9','',null,null,'0000000000', '0000000000','2000074019','2000074019001','aZvsAMWmHh9Q4LLrpuiSSpoh5ltb17LIKa4WtaeKG0Xlig4GvQGqI5hkjbwcjmY9');
INSERT INTO public.users(id, created_at, updated_at, name, email, password, address, address_map_latitude, address_map_longitude, main_phone_number, secondary_phone_number, identification, ruc, api_token)	VALUES (56,'2020-01-11 14:09:02','2020-01-11 14:09:02','HUGUET BLANCO HUGO','hugo.huguet@turismo.gob.ec','eyJpdiI6IldYb3Y3SUpFRUFWRTNMaWV5bVNHSkE9PSIsInZhbHVlIjoiRlZuXC95eVFuWjFqK3RzVXh4czNtcGdJdHh5bFJYUUh4bnZEWjFGXC9sNFNvPSIsIm1hYyI6IjliZDMyNmRhNGFjNGM2MTc0OWQ5YjU5M2JjMTFiYzg2NGRjOTlmZDFmMDEyNDAwYmY2ZjM0MDllNTI4YzJiZjUifQ==','',null,null,'0000000000', '0000000000','1756056485','1756056485001','UzGunp3c9fqSBL2T6H7TLi9AJbApJNjW3Ntt810D14u5sk2QWk9yBdc1LMQ9Qdjb');
INSERT INTO public.users(id, created_at, updated_at, name, email, password, address, address_map_latitude, address_map_longitude, main_phone_number, secondary_phone_number, identification, ruc, api_token)	VALUES (57,'2020-01-11 14:09:02','2020-01-11 14:09:02','ECHEVERRIA ZAVALA GABRIELA ALEJANDRA','gabriela.echeverria@turismo.gob.ec','eyJpdiI6Im1QaEVpQ0Y2YzFwc3c1UnJWUlorM0E9PSIsInZhbHVlIjoiZ09kcFhuR3k1U3hZTUNsTlwvQk1OdFVzZ3dTODkzUVV1RDRlMFkxXC9ucjBNPSIsIm1hYyI6ImI0MDlhYmRlZjQ2ODllMTg2MjgxMmQ1YWRhOWQxYTBjODcyNTFhODg1YzFlM2ZjNmNjZjc1NWFkNWJiNzA4OTQifQ==','',null,null,'0000000000', '0000000000','1718052200','1718052200001','FYvPs3FVPNrv6ksihmeupJSjBG1fgLmwZ01SWFkkkjdcprdMRrL5bVOfAyzwd3R2');
INSERT INTO public.users(id, created_at, updated_at, name, email, password, address, address_map_latitude, address_map_longitude, main_phone_number, secondary_phone_number, identification, ruc, api_token)	VALUES (58,'2020-01-11 14:09:02','2020-01-11 14:09:02','CORDOVA PINTADO MARJORIE MIROSLVA','marjorie.cordova@turismo.gob.ec','eyJpdiI6ImxLRUVqT0ZSVUhJbHVKblFqeWprRkE9PSIsInZhbHVlIjoiREJkNWh0cWx3ZGJrWW9VS1wvWUl5enVwV3dGYnpQYlE4Y3ZoZlJTd0JCS3M9IiwibWFjIjoiZTE3NzQwZTM4NzY5NTI3YTEzMjQwYzVlODI1YWVlZDA3OWQ4NDJlNThkMWY4YjZmYzk5Y2E1OTFhOGZmMjFmNiJ9','',null,null,'0000000000', '0000000000','1104251515','1104251515001','iCnMiWwvFOq6iMf3XZuDpLZiKgfbPsE8Xa7UIqg3jJvu8MGZA6xh1Upho2xy14FN');
INSERT INTO public.users(id, created_at, updated_at, name, email, password, address, address_map_latitude, address_map_longitude, main_phone_number, secondary_phone_number, identification, ruc, api_token)	VALUES (59,'2020-01-11 14:09:02','2020-01-11 14:09:02','VILLACIS SIERRA OMAR ALEJANDRO','omar.villacis@turismo.gob.ec','eyJpdiI6IkJIN3F4RXhxcm8yV3VnWm5wMjVaVXc9PSIsInZhbHVlIjoibEhsNTAyVXlcL3lMbGNsSGdmNGFZM3FTSnlBRUJVZFZBZ3FlMzA0MUU5Y0E9IiwibWFjIjoiMzczNTgyNGRmYTNkMmFhZmM4ZmZkZDIyNDg4ZTUxNzZmMDI1NGVlYzk0MjMxM2RjNTQ4ZmVkNzlkNTRkMmY4ZCJ9','',null,null,'0000000000', '0000000000','0915034136','0915034136001','9Vo6Aot13WCh2RJhw6qmoH5m7iwPMXyHGs44q4nbFR9phFa0C8aYHeyWaqC8nVy2');
INSERT INTO public.users(id, created_at, updated_at, name, email, password, address, address_map_latitude, address_map_longitude, main_phone_number, secondary_phone_number, identification, ruc, api_token)	VALUES (60,'2020-01-11 14:25:37','2020-01-11 14:25:37','ARIAS MONTANERO LUCY JACQUELINE','lucy.arias@turismo.gob.ec','eyJpdiI6IlVZTnZXMUMyNTdxdFRSRlhtRVN1RlE9PSIsInZhbHVlIjoiOUQ2aXNpMm0rRmNuMHNpam1jR1wvaVlCdGRuR0txbEhZRGdOazA5dHRTZEU9IiwibWFjIjoiZWFmYjY2ZjI1Mjk1YWRlZDEwMTYxMzNiYjEzY2VlZDk2NDA5MTYzMmE0YmJiNmZjZDg4NGU2ZTAwYTM2MDA0ZiJ9','',null,null,'0000000000', '0000000000','1310009699','1310009699001','fz6kllZ5LxuVu4phKE3mcax0IEna9wzbgD1zKt87tFceHxEZxYXAc4b7mfU0Okoz');
INSERT INTO public.users(id, created_at, updated_at, name, email, password, address, address_map_latitude, address_map_longitude, main_phone_number, secondary_phone_number, identification, ruc, api_token)	VALUES (61,'2020-01-11 14:25:37','2020-01-11 14:25:37','CABRERA CABRERA CRISTIAN','cristian.cabrera@turismo.gob.ec','eyJpdiI6IlRcL2Viek05SGJPNmJJeFRyWXhwUGNBPT0iLCJ2YWx1ZSI6Ik5oVkJ0OStVaGtLYVFLZkt0WnRJXC9veXhpcklmT1ptcDU3ZzhBWnpJZWU0PSIsIm1hYyI6IjQ1NWJkNDFjMDJmZTMxZDE2YjQxNDcyY2NjNzA5ZjIzNTE4OTI5YjI2YTJjN2NkZjU1MjkzODMyZWE5M2VhNDAifQ==','',null,null,'0000000000', '0000000000','1104187735','1104187735001','uIR2c7hEZAKnhNj6rRcNncMO13XW6lk2FLrLZHYSScjiQETx4m2wdPT0XUcaOgaY');
INSERT INTO public.users(id, created_at, updated_at, name, email, password, address, address_map_latitude, address_map_longitude, main_phone_number, secondary_phone_number, identification, ruc, api_token)	VALUES (62,'2020-01-11 14:25:37','2020-01-11 14:25:37','RAZA CAICEDO ROMULO GREGORIO','romulo.raza@turismo.gob.ec','eyJpdiI6Ino4bndFNXl1eXBKVXhnRkhEdlhiRWc9PSIsInZhbHVlIjoibkVZOVdDQ004V21rUjBPUkZvakhxMGtyVWxUV2h3UVJtNURueWhRNllkQT0iLCJtYWMiOiI4ODc5MjM1MGEzMzliZDE2N2YzMzcyY2QxOGY4ODFjNTYxN2QyYmNhZjk5NTczY2E1OTY0NjAxNzVjMWM0Y2Y2In0=','',null,null,'0000000000', '0000000000','0917733610','0917733610001','ihveOfyyWRmcapWnKDZbL7XySHOthcWOVzkykgw9ODNcBXNBjpz1ShHRZJELdmBb');
INSERT INTO public.users(id, created_at, updated_at, name, email, password, address, address_map_latitude, address_map_longitude, main_phone_number, secondary_phone_number, identification, ruc, api_token)	VALUES (63,'2020-01-11 14:25:37','2020-01-11 14:25:37','MALDONADO YEPEZ FANNY MONSERRATH','monserrath.moldonado@turismo.gob.ec','eyJpdiI6IkF2T0QwaHowTUVPNDkyUklEaEhFK0E9PSIsInZhbHVlIjoibVRMY2wwZXdwbWp1WHdRcWp1YXY0ODh6R2l3UHhFaERsSEJESGxxbzI4dz0iLCJtYWMiOiJmZTZmMzVlNzE1MjRmYzRhMWVjNzc4MzdkMzQzYTgzMjA5ODk5NjI1MWQ4NjZhMzEwNzYyMmMwY2Y4NTMzNzgzIn0=','',null,null,'0000000000', '0000000000','0602668261','0602668261001','ALawztjHsmh8l3iAdW9Izn97VjH8hpjSwldW9LHv601TzRUYNKzqIhjim6ouOP42');
INSERT INTO public.users(id, created_at, updated_at, name, email, password, address, address_map_latitude, address_map_longitude, main_phone_number, secondary_phone_number, identification, ruc, api_token)	VALUES (64,'2020-01-11 14:29:11','2020-01-11 14:29:11','ANDRADE POSSO MARIO DANILO','mario.andrade@turismo.gob.ec','eyJpdiI6InBXNCtFdlFaRVYrM0V6aDc5UGtRc0E9PSIsInZhbHVlIjoiRGxRemVDamhTZVZ3NEIrZUE2NGs3eEtmU1pjT0NjcE44WTFDclJVdWltOD0iLCJtYWMiOiJlMzZjOGFhYjgyOTZkOTg2MTI5MGNhNTNiNzJjNmZjNGE4YmU4MTJkNzhkYjI5YzUyYTg1NzcwMmI2NGM4MGM3In0=','',null,null,'0000000000', '0000000000','1002346938','1002346938001','KwPS17QuEVXgfEdnVRQ7nW2C6TYU4LNGtLkjG5NgGGJUnX25rdj18RAerCzvrPuJ');
INSERT INTO public.users(id, created_at, updated_at, name, email, password, address, address_map_latitude, address_map_longitude, main_phone_number, secondary_phone_number, identification, ruc, api_token)	VALUES (65,'2020-01-11 14:29:11','2020-01-11 14:29:11','RIVAS QUEZADA TANIA MARGARITA','tania.rivas@turismo.gob.ec','eyJpdiI6IjgzZUVINWZ5SGl3OUtxMjlWeEgxUEE9PSIsInZhbHVlIjoiY1hNU3N2cjZnT2hDXC9XTEJaWGhUcjlxUExsSnIyOGdDejNURVpcL1NHdWhFPSIsIm1hYyI6ImZkYjFhYjAzNjUwNzQ1NmJlMDg3YTlkYjc3NTA2NGRmOTI1YzRhOTM1ZGY4ZTIxNWM5MzZkZmRmMTMwZTRhZjQifQ==','',null,null,'0000000000', '0000000000','0102576956','0102576956001','bC55qqfTSFPKRAVHM5KrIcQH4ICCswIFQT6feOi0ao7JDjWSIR6PAcT8jaAPaNaf');
INSERT INTO public.users(id, created_at, updated_at, name, email, password, address, address_map_latitude, address_map_longitude, main_phone_number, secondary_phone_number, identification, ruc, api_token)	VALUES (66,'2020-01-11 14:38:07','2020-01-11 14:38:07','ROSERO CALLE MARIA LEONOR','maria.rosero@turismo.gob.ec','eyJpdiI6Ijg0c3Z6MU9NWHYrdmZnVDQ2ZXlqQ1E9PSIsInZhbHVlIjoiVnp2M1FPK1JSdVBTVEt5NUgxZkJiNWI4MWVBcFZ0OGZUN1ZESlBad3BEcz0iLCJtYWMiOiIwY2VkYWYxNGE5MDg3Mjc4NDVhMGIyYjAxYzkxNDQzYWE1MzkwY2I2NTg2ZDVmZGY1NGVjMzIzN2ZlMzM4MDMwIn0=','',null,null,'0000000000', '0000000000','1400444368','1400444368001','BGIXsYk3FHdhN30XAYAyiMEQzX1HEemJTaxELa0hRJE8PY9gnw0iHPFMJJzSMBFd');
INSERT INTO public.users(id, created_at, updated_at, name, email, password, address, address_map_latitude, address_map_longitude, main_phone_number, secondary_phone_number, identification, ruc, api_token)	VALUES (67,'2020-01-11 15:50:35','2020-01-11 15:50:35','OROZCO NUÑEZ CARLOS ANDRES','carlos.orozco@turismo.gob.ec','eyJpdiI6InpuSlBXXC9ZV3hPUWRHTVRYcnBDcUZnPT0iLCJ2YWx1ZSI6ImNzcU1LSzVXQ1VDZVY1ZHY1MlVXc0NQcWxDNmZXMXJrUHhoallvbGM0b0k9IiwibWFjIjoiMzRhMTM4MmVhMjRhY2VjMjVkNjMzMjU3MWQzY2JmNTQwODRiMWJlOGFiOTA1Zjk3NThmOTI0ODg1NGU4ZThkNyJ9','',null,null,'0000000000', '0000000000','0801999038','0801999038001','OyTYHeQPXT1ZDFxPIgtuDWpwM5y5J1SfKFrLrpd7wvKcxTZAGD7Q99cdnwefpQbi');
INSERT INTO public.users(id, created_at, updated_at, name, email, password, address, address_map_latitude, address_map_longitude, main_phone_number, secondary_phone_number, identification, ruc, api_token)	VALUES (68,'2020-01-11 16:20:13','2020-01-11 16:20:13','ALAVA RIOFRÍO LUIS FELIPE','felipe.alava@turismo.gob.ec','eyJpdiI6IlBvUnZqNVQ0UWxNOG9XRnVWeWNSbWc9PSIsInZhbHVlIjoiQ3NjMU1tM09lQVUwOXhwUEpjaHZhQ2VyQUtzV0FmTGxUa1ZzMnlualNcL1k9IiwibWFjIjoiN2VlMmE2MjhiODdjZDc0YjAwNjM1ZTllMGVlODdkY2VhNDMzNzM1YzJmZTQwZTNhMmIyOWI5N2JiNTgwZjBlZiJ9','',null,null,'0000000000', '0000000000','0916563828','0916563828001','4IdU3Mgu58Flw9HOJItRb6nMgSIB7Mc5OBhAwKX9SsYSs2WAALNV21i8mdXM7Zjs');
INSERT INTO public.users(id, created_at, updated_at, name, email, password, address, address_map_latitude, address_map_longitude, main_phone_number, secondary_phone_number, identification, ruc, api_token)	VALUES (69,'2020-01-11 16:20:13','2020-01-11 16:20:13','MORA TORAL MARÍA EULALIA','maria.mora@turismo.gob.ec','eyJpdiI6IjBYeWRrNGtZcENqRU5pNjNtVFV4V1E9PSIsInZhbHVlIjoiUFRyVXFIUUp3T016XC82WVJZSGFuek9iUHRGT0tYYTVZUVk3S1lVVGJYbkk9IiwibWFjIjoiYWJmNDllNmRiM2I4NDAyY2Y5OGJkZDA4YWQ3NTdiNmM0NTcwYmJjYmEyN2Q4OTUyYjgwOGIxNjkzNzg5YjBkNyJ9','',null,null,'0000000000', '0000000000','0101053031','0101053031001','dyBxa21WrvuA1PNPp3EmHKNBXqusNCxGlIp5WllUU53CyUlKUlqfdVxI5tdVu9st');
INSERT INTO public.users(id, created_at, updated_at, name, email, password, address, address_map_latitude, address_map_longitude, main_phone_number, secondary_phone_number, identification, ruc, api_token)	VALUES (70,'2020-01-11 16:20:13','2020-01-11 16:20:13','PÁEZ ESPINOSA MÓNICA ALEXANDRA','monica.paez@turismo.gob.ec','eyJpdiI6IkpMVG5FeXl3XC93MjlsSFY2amY0d1hRPT0iLCJ2YWx1ZSI6ImJBSWJPc3FqMjZiam50bUVXM0dMdDFMRGNPVjF3dk40S2NDYXVNUmN5eU09IiwibWFjIjoiZTlmZDA2YmNhODZhYjZmZTNmOGVlY2UwYmU5Y2E3YjY1MjQyN2VjYzExNDYwYjRkNjMxZWFlNjYyYTI5NDM1OCJ9','',null,null,'0000000000', '0000000000','1710193853','1710193853001','LqpzyRFknCF3EKGHE9R8N45jRUQLEDtEzI3qZuvaQlBa7AjRm9oNQEo6BeOS2Ysv');
INSERT INTO public.users(id, created_at, updated_at, name, email, password, address, address_map_latitude, address_map_longitude, main_phone_number, secondary_phone_number, identification, ruc, api_token)	VALUES (71,'2020-01-11 16:20:13','2020-01-11 16:20:13','GREFA LOPEZ BELLA MIRIAM','bella.grefa@turismo.gob.ec','eyJpdiI6IkpMVG5FeXl3XC93MjlsSFY2amY0d1hRPT0iLCJ2YWx1ZSI6ImJBSWJPc3FqMjZiam50bUVXM0dMdDFMRGNPVjF3dk40S2NDYXVNUmN5eU09IiwibWFjIjoiZTlmZDA2YmNhODZhYjZmZTNmOGVlY2UwYmU5Y2E3YjY1MjQyN2VjYzExNDYwYjRkNjMxZWFlNjYyYTI5NDM1OCJ9','',null,null,'0000000000', '0000000000','2100272901','2100272901001','LqpzyRFknCF3EKGHE9R8N45jRUQLEDtEzI3qZuvaQlBa7AjRm9oNQEo6BeOS2Ysv');